[{"OBJECT_NAME":"STARLINK-31096","OBJECT_ID":"2023-200D","EPOCH":"2026-03-09T07:03:07.343136","MEAN_MOTION":15.22976409,"ECCENTRICITY":0.00021529,"INCLINATION":43.0024,"RA_OF_ASC_NODE":171.6597,"ARG_OF_PERICENTER":311.2907,"MEAN_ANOMALY":48.7758,"EPHEMERIS_TYPE":0,"CLASSIFICATION_TYPE":"U","NORAD_CAT_ID":58592,"ELEMENT_SET_NO":999,"REV_AT_EPOCH":12354,"BSTAR":0.0018691683,"MEAN_MOTION_DOT":0.00044809,"MEAN_MOTION_DDOT":0},{"OBJECT_NAME":"SL-14 R\/B","OBJECT_ID":"2009-003B","EPOCH":"2026-03-09T22:56:16.948608","MEAN_MOTION":15.18255832,"ECCENTRICITY":0.00217716,"INCLINATION":82.3842,"RA_OF_ASC_NODE":305.4853,"ARG_OF_PERICENTER":18.7466,"MEAN_ANOMALY":341.4564,"EPHEMERIS_TYPE":0,"CLASSIFICATION_TYPE":"U","NORAD_CAT_ID":33505,"ELEMENT_SET_NO":999,"REV_AT_EPOCH":94237,"BSTAR":9.9679257e-5,"MEAN_MOTION_DOT":2.085e-5,"MEAN_MOTION_DDOT":0}]
